{
  "type": "FeatureCollection",
  "features": [
    {
      "type": "Feature",
      "properties": { "key": "bordeaux", "label": "Bordeaux" },
      "geometry": {
        "type": "Polygon",
        "coordinates": [[[-1.3, 44.3], [-0.1, 44.3], [-0.1, 45.6], [-1.3, 45.6], [-1.3, 44.3]]]
      }
    },
    {
      "type": "Feature",
      "properties": { "key": "bourgogne", "label": "Bourgogne" },
      "geometry": {
        "type": "Polygon",
        "coordinates": [[[3.5, 46.5], [5.5, 46.5], [5.5, 48.0], [3.5, 48.0], [3.5, 46.5]]]
      }
    },
    {
      "type": "Feature",
      "properties": { "key": "rhone", "label": "Rhône" },
      "geometry": {
        "type": "Polygon",
        "coordinates": [[[3.8, 43.8], [5.2, 43.8], [5.2, 45.5], [3.8, 45.5], [3.8, 43.8]]]
      }
    },
    {
      "type": "Feature",
      "properties": { "key": "provence", "label": "Provence" },
      "geometry": {
        "type": "Polygon",
        "coordinates": [[[4.8, 43.0], [6.5, 43.0], [6.5, 44.2], [4.8, 44.2], [4.8, 43.0]]]
      }
    },
    {
      "type": "Feature",
      "properties": { "key": "loire", "label": "Loire" },
      "geometry": {
        "type": "Polygon",
        "coordinates": [[[-1.5, 46.5], [2.5, 46.5], [2.5, 48.0], [-1.5, 48.0], [-1.5, 46.5]]]
      }
    },
    {
      "type": "Feature",
      "properties": { "key": "champagne", "label": "Champagne" },
      "geometry": {
        "type": "Polygon",
        "coordinates": [[[3.2, 48.5], [5.0, 48.5], [5.0, 49.5], [3.2, 49.5], [3.2, 48.5]]]
      }
    }
  ]
}
